{
  "type": "FeatureCollection",
  "features": [
    {
      "type": "Feature",
      "properties": {
        "norad_id": 34301,
        "name": "COSMOS 2251 DEB",
        "group": "cosmos-2251-debris",
        "lat": -40.89415952900226,
        "lon": -27.450542053399648,
        "alt_km": 612.5477030350212,
        "timestamp": "2025-12-27T02:10:16.582947+00:00",
        "meta_object_name": "COSMOS 2251 DEB",
        "meta_object_id": "1993-036MX",
        "meta_epoch": "2025-12-26T12:33:41.976000",
        "meta_mean_motion": 14.85255875,
        "meta_eccentricity": 0.0009678,
        "meta_inclination": 74.0061,
        "meta_ra_of_asc_node": 139.2942,
        "meta_arg_of_pericenter": 203.9823,
        "meta_mean_anomaly": 227.9901,
        "meta_ephemeris_type": 0,
        "meta_classification_type": "U",
        "meta_norad_cat_id": 34301,
        "meta_element_set_no": 999,
        "meta_rev_at_epoch": 88605,
        "meta_bstar": 0.0032937,
        "meta_mean_motion_dot": 0.00028381,
        "meta_mean_motion_ddot": 0,
        "tle_line1": "1 34301U 93036MX  25360.52340250  .00028381  00000+0  32937-2 0  9996",
        "tle_line2": "2 34301  74.0061 139.2942 0009678 203.9823 227.9901 14.85255875886055"
      },
      "geometry": {
        "type": "Point",
        "coordinates": [
          -27.450542053399648,
          -40.89415952900226
        ]
      }
    },
    {
      "type": "Feature",
      "properties": {
        "norad_id": 34302,
        "name": "COSMOS 2251 DEB",
        "group": "cosmos-2251-debris",
        "lat": 55.59530916177554,
        "lon": -107.14015712312776,
        "alt_km": 811.1822733882,
        "timestamp": "2025-12-27T02:10:16.582957+00:00",
        "meta_object_name": "COSMOS 2251 DEB",
        "meta_object_id": "1993-036MY",
        "meta_epoch": "2025-12-26T17:51:58.155840",
        "meta_mean_motion": 14.39383485,
        "meta_eccentricity": 0.0079578,
        "meta_inclination": 74.1784,
        "meta_ra_of_asc_node": 97.953,
        "meta_arg_of_pericenter": 309.3279,
        "meta_mean_anomaly": 179.0398,
        "meta_ephemeris_type": 0,
        "meta_classification_type": "U",
        "meta_norad_cat_id": 34302,
        "meta_element_set_no": 999,
        "meta_rev_at_epoch": 87922,
        "meta_bstar": 0.00064412,
        "meta_mean_motion_dot": 2.053e-05,
        "meta_mean_motion_ddot": 0,
        "tle_line1": "1 34302U 93036MY  25360.74442310  .00002053  00000+0  64412-3 0  9993",
        "tle_line2": "2 34302  74.1784  97.9530 0079578 309.3279 179.0398 14.39383485879220"
      },
      "geometry": {
        "type": "Point",
        "coordinates": [
          -107.14015712312776,
          55.59530916177554
        ]
      }
    },
    {
      "type": "Feature",
      "properties": {
        "norad_id": 34303,
        "name": "COSMOS 2251 DEB",
        "group": "cosmos-2251-debris",
        "lat": 6.189129357402102,
        "lon": -97.38189200324082,
        "alt_km": 627.938123269847,
        "timestamp": "2025-12-27T02:10:16.582968+00:00",
        "meta_object_name": "COSMOS 2251 DEB",
        "meta_object_id": "1993-036MZ",
        "meta_epoch": "2025-12-26T19:49:59.858400",
        "meta_mean_motion": 14.54644604,
        "meta_eccentricity": 0.0135655,
        "meta_inclination": 74.0047,
        "meta_ra_of_asc_node": 261.3361,
        "meta_arg_of_pericenter": 36.1964,
        "meta_mean_anomaly": 28.7437,
        "meta_ephemeris_type": 0,
        "meta_classification_type": "U",
        "meta_norad_cat_id": 34303,
        "meta_element_set_no": 999,
        "meta_rev_at_epoch": 88167,
        "meta_bstar": 0.0015353,
        "meta_mean_motion_dot": 7.399e-05,
        "meta_mean_motion_ddot": 0,
        "tle_line1": "1 34303U 93036MZ  25360.82638725  .00007399  00000+0  15353-2 0  9997",
        "tle_line2": "2 34303  74.0047 261.3361 0135655  36.1964  28.7437 14.54644604881672"
      },
      "geometry": {
        "type": "Point",
        "coordinates": [
          -97.38189200324082,
          6.189129357402102
        ]
      }
    },
    {
      "type": "Feature",
      "properties": {
        "norad_id": 34304,
        "name": "COSMOS 2251 DEB",
        "group": "cosmos-2251-debris",
        "lat": -17.044621915903313,
        "lon": 91.08008811190892,
        "alt_km": 802.123234339474,
        "timestamp": "2025-12-27T02:10:16.582978+00:00",
        "meta_object_name": "COSMOS 2251 DEB",
        "meta_object_id": "1993-036NA",
        "meta_epoch": "2025-12-26T16:48:12.001824",
        "meta_mean_motion": 14.37997771,
        "meta_eccentricity": 0.0128923,
        "meta_inclination": 74.0136,
        "meta_ra_of_asc_node": 96.8421,
        "meta_arg_of_pericenter": 231.8358,
        "meta_mean_anomaly": 249.2914,
        "meta_ephemeris_type": 0,
        "meta_classification_type": "U",
        "meta_norad_cat_id": 34304,
        "meta_element_set_no": 999,
        "meta_rev_at_epoch": 87497,
        "meta_bstar": 0.0017544,
        "meta_mean_motion_dot": 5.819e-05,
        "meta_mean_motion_ddot": 0,
        "tle_line1": "1 34304U 93036NA  25360.70013891  .00005819  00000+0  17544-2 0  9995",
        "tle_line2": "2 34304  74.0136  96.8421 0128923 231.8358 249.2914 14.37997771874973"
      },
      "geometry": {
        "type": "Point",
        "coordinates": [
          91.08008811190892,
          -17.044621915903313
        ]
      }
    },
    {
      "type": "Feature",
      "properties": {
        "norad_id": 34307,
        "name": "COSMOS 2251 DEB",
        "group": "cosmos-2251-debris",
        "lat": -14.878705376302603,
        "lon": 114.44522335240627,
        "alt_km": 986.7948217356934,
        "timestamp": "2025-12-27T02:10:16.582988+00:00",
        "meta_object_name": "COSMOS 2251 DEB",
        "meta_object_id": "1993-036ND",
        "meta_epoch": "2025-12-26T06:19:47.574912",
        "meta_mean_motion": 13.54342626,
        "meta_eccentricity": 0.0391752,
        "meta_inclination": 74.0541,
        "meta_ra_of_asc_node": 291.4151,
        "meta_arg_of_pericenter": 119.3704,
        "meta_mean_anomaly": 2.3521,
        "meta_ephemeris_type": 0,
        "meta_classification_type": "U",
        "meta_norad_cat_id": 34307,
        "meta_element_set_no": 999,
        "meta_rev_at_epoch": 83045,
        "meta_bstar": 0.00079797,
        "meta_mean_motion_dot": 8.69e-06,
        "meta_mean_motion_ddot": 0,
        "tle_line1": "1 34307U 93036ND  25360.26374508  .00000869  00000+0  79797-3 0  9993",
        "tle_line2": "2 34307  74.0541 291.4151 0391752 119.3704   2.3521 13.54342626830454"
      },
      "geometry": {
        "type": "Point",
        "coordinates": [
          114.44522335240627,
          -14.878705376302603
        ]
      }
    },
    {
      "type": "Feature",
      "properties": {
        "norad_id": 34313,
        "name": "COSMOS 2251 DEB",
        "group": "cosmos-2251-debris",
        "lat": -73.58110095464325,
        "lon": 172.60318500137828,
        "alt_km": 515.025040558764,
        "timestamp": "2025-12-27T02:10:16.582998+00:00",
        "meta_object_name": "COSMOS 2251 DEB",
        "meta_object_id": "1993-036NK",
        "meta_epoch": "2025-12-26T04:29:26.748096",
        "meta_mean_motion": 15.21524826,
        "meta_eccentricity": 0.001212,
        "meta_inclination": 73.9711,
        "meta_ra_of_asc_node": 277.1842,
        "meta_arg_of_pericenter": 60.7811,
        "meta_mean_anomaly": 299.4597,
        "meta_ephemeris_type": 0,
        "meta_classification_type": "U",
        "meta_norad_cat_id": 34313,
        "meta_element_set_no": 999,
        "meta_rev_at_epoch": 89269,
        "meta_bstar": 0.004272,
        "meta_mean_motion_dot": 0.00097673,
        "meta_mean_motion_ddot": 0,
        "tle_line1": "1 34313U 93036NK  25360.18711514  .00097673  00000+0  42720-2 0  9997",
        "tle_line2": "2 34313  73.9711 277.1842 0012120  60.7811 299.4597 15.21524826892699"
      },
      "geometry": {
        "type": "Point",
        "coordinates": [
          172.60318500137828,
          -73.58110095464325
        ]
      }
    },
    {
      "type": "Feature",
      "properties": {
        "norad_id": 34314,
        "name": "COSMOS 2251 DEB",
        "group": "cosmos-2251-debris",
        "lat": 16.655666089663786,
        "lon": -72.30350777574854,
        "alt_km": 760.0813966637488,
        "timestamp": "2025-12-27T02:10:16.583009+00:00",
        "meta_object_name": "COSMOS 2251 DEB",
        "meta_object_id": "1993-036NL",
        "meta_epoch": "2025-12-26T06:21:36.000000",
        "meta_mean_motion": 14.17457989,
        "meta_eccentricity": 0.0103578,
        "meta_inclination": 74.0062,
        "meta_ra_of_asc_node": 284.2467,
        "meta_arg_of_pericenter": 26.7338,
        "meta_mean_anomaly": 100.288,
        "meta_ephemeris_type": 0,
        "meta_classification_type": "U",
        "meta_norad_cat_id": 34314,
        "meta_element_set_no": 999,
        "meta_rev_at_epoch": 86849,
        "meta_bstar": 0.00059558,
        "meta_mean_motion_dot": 1.248e-05,
        "meta_mean_motion_ddot": 0,
        "tle_line1": "1 34314U 93036NL  25360.26500000  .00001248  00000+0  59558-3 0  9994",
        "tle_line2": "2 34314  74.0062 284.2467 0103578  26.7338 100.2880 14.17457989868491"
      },
      "geometry": {
        "type": "Point",
        "coordinates": [
          -72.30350777574854,
          16.655666089663786
        ]
      }
    }
  ]
}